STARLINK-35820          
1 66597U 25270K   25345.25003472 -.00186726  00000+0 -32435-2 0  9991
2 66597  43.0000 201.4066 0002000 259.9651  98.9515 15.50662242  4262
STARLINK-35981          
1 66598U 25270L   25345.25003472 -.00190644  00000+0 -33096-2 0  9990
2 66598  42.9998 201.4008 0001873 251.7311 109.0672 15.50694343  4000
STARLINK-35930          
1 66599U 25270M   25345.25003472 -.00152656  00000+0 -26510-2 0  9995
2 66599  42.9999 201.3962 0000752 296.2055  66.6611 15.50541942  4168
STARLINK-35980          
1 66600U 25270N   25345.25003472 -.00145056  00000+0 -25070-2 0  9994
2 66600  43.0000 201.3925 0002467 263.7802 100.8897 15.50639425  4069
STARLINK-35978          
1 66601U 25270P   25345.25003472 -.00191467  00000+0 -33277-2 0  9990
2 66601  42.9999 201.3877 0002101 260.8060 105.7798 15.50665075  4008
STARLINK-36050          
1 66602U 25270Q   25345.25003472 -.00884489  00000+0 -16391-1 0  9991
2 66602  42.9997 201.3815 0002105 263.8733 104.5841 15.50889088  4067
STARLINK-36048          
1 66603U 25270R   25345.25003472 -.00170258  00000+0 -29481-2 0  9999
2 66603  42.9996 201.3765 0001909 247.4627 122.9073 15.50688182  4065
STARLINK-35977          
1 66604U 25270S   25345.25003472 -.00174723  00000+0 -30271-2 0  9990
2 66604  42.9995 201.3717 0001849 249.3800 122.9088 15.50690392  4162
STARLINK-36052          
1 66605U 25270T   25345.25003472 -.00170742  00000+0 -29602-2 0  9994
2 66605  42.9999 201.3679 0002093 260.8947 113.3593 15.50654622  4167
STARLINK-36063          
1 66606U 25270U   25345.25003472 -.00181892  00000+0 -31541-2 0  9998
2 66606  42.9996 201.3573 0001843 251.1479 126.8960 15.50693279  4161
STARLINK-35993          
1 66607U 25270V   25345.25003472 -.00161006  00000+0 -27883-2 0  9998
2 66607  42.9998 201.3630 0002021 260.3710 115.8025 15.50648017  4066
STARLINK-36036          
1 66608U 25270W   25345.25003472 -.00160032  00000+0 -27678-2 0  9999
2 66608  42.9999 201.3532 0001838 250.0236 129.9329 15.50680971  4005
